{
  "type": "FeatureCollection",
  "features": [
    {
      "type": "Feature",
      "properties": {
        "norad_id": 66702,
        "name": "TRANSPORTER-15 AN",
        "group": "last-30-days",
        "lat": 54.453865729538926,
        "lon": 55.483865434864576,
        "alt_km": 510.1078062468132,
        "timestamp": "2025-12-20T09:36:00.352279+00:00",
        "meta_object_name": "TRANSPORTER-15 AN",
        "meta_object_id": "2025-276AN",
        "meta_epoch": "2025-12-20T04:36:35.080416",
        "meta_mean_motion": 15.17346445,
        "meta_eccentricity": 0.0002715,
        "meta_inclination": 97.4411,
        "meta_ra_of_asc_node": 65.8195,
        "meta_arg_of_pericenter": 279.0557,
        "meta_mean_anomaly": 81.037,
        "meta_ephemeris_type": 0,
        "meta_classification_type": "U",
        "meta_norad_cat_id": 66702,
        "meta_element_set_no": 999,
        "meta_rev_at_epoch": 325,
        "meta_bstar": 0.0003722,
        "meta_mean_motion_dot": 7.363e-05,
        "meta_mean_motion_ddot": 0,
        "tle_line1": "1 66702U 25276AN  25354.19207269  .00007363  00000+0  37220-3 0  9993",
        "tle_line2": "2 66702  97.4411  65.8195 0002715 279.0557  81.0370 15.17346445  3252"
      },
      "geometry": {
        "type": "Point",
        "coordinates": [
          55.483865434864576,
          54.453865729538926
        ]
      }
    },
    {
      "type": "Feature",
      "properties": {
        "norad_id": 66703,
        "name": "PELICAN-6",
        "group": "last-30-days",
        "lat": 61.64000936152891,
        "lon": 52.01622559841099,
        "alt_km": 508.49948039624906,
        "timestamp": "2025-12-20T09:36:00.352290+00:00",
        "meta_object_name": "PELICAN-6",
        "meta_object_id": "2025-276AP",
        "meta_epoch": "2025-12-20T04:34:37.669728",
        "meta_mean_motion": 15.17319935,
        "meta_eccentricity": 8.48e-05,
        "meta_inclination": 97.4413,
        "meta_ra_of_asc_node": 65.823,
        "meta_arg_of_pericenter": 268.3882,
        "meta_mean_anomaly": 91.7255,
        "meta_ephemeris_type": 0,
        "meta_classification_type": "U",
        "meta_norad_cat_id": 66703,
        "meta_element_set_no": 999,
        "meta_rev_at_epoch": 325,
        "meta_bstar": 0.00026653,
        "meta_mean_motion_dot": 5.248e-05,
        "meta_mean_motion_ddot": 0,
        "tle_line1": "1 66703U 25276AP  25354.19071377  .00005248  00000+0  26653-3 0  9991",
        "tle_line2": "2 66703  97.4413  65.8230 0000848 268.3882  91.7255 15.17319935  3256"
      },
      "geometry": {
        "type": "Point",
        "coordinates": [
          52.01622559841099,
          61.64000936152891
        ]
      }
    },
    {
      "type": "Feature",
      "properties": {
        "norad_id": 66704,
        "name": "FLOCK 4H-1",
        "group": "last-30-days",
        "lat": 66.86165092733552,
        "lon": -96.15623258258525,
        "alt_km": 504.77895782094856,
        "timestamp": "2025-12-20T09:36:00.352302+00:00",
        "meta_object_name": "FLOCK 4H-1",
        "meta_object_id": "2025-276AQ",
        "meta_epoch": "2025-12-20T04:21:45.859392",
        "meta_mean_motion": 15.18047831,
        "meta_eccentricity": 0.0001801,
        "meta_inclination": 97.4387,
        "meta_ra_of_asc_node": 65.826,
        "meta_arg_of_pericenter": 180.813,
        "meta_mean_anomaly": 179.3101,
        "meta_ephemeris_type": 0,
        "meta_classification_type": "U",
        "meta_norad_cat_id": 66704,
        "meta_element_set_no": 999,
        "meta_rev_at_epoch": 325,
        "meta_bstar": 0.00031813,
        "meta_mean_motion_dot": 6.411e-05,
        "meta_mean_motion_ddot": 0,
        "tle_line1": "1 66704U 25276AQ  25354.18178078  .00006411  00000+0  31813-3 0  9994",
        "tle_line2": "2 66704  97.4387  65.8260 0001801 180.8130 179.3101 15.18047831  3251"
      },
      "geometry": {
        "type": "Point",
        "coordinates": [
          -96.15623258258525,
          66.86165092733552
        ]
      }
    },
    {
      "type": "Feature",
      "properties": {
        "norad_id": 66705,
        "name": "FLOCK 4H-2",
        "group": "last-30-days",
        "lat": 64.86994991620914,
        "lon": -97.78508237288436,
        "alt_km": 504.8189451873768,
        "timestamp": "2025-12-20T09:36:00.352312+00:00",
        "meta_object_name": "FLOCK 4H-2",
        "meta_object_id": "2025-276AR",
        "meta_epoch": "2025-12-20T04:21:13.535424",
        "meta_mean_motion": 15.18098431,
        "meta_eccentricity": 0.0001045,
        "meta_inclination": 97.4388,
        "meta_ra_of_asc_node": 65.8268,
        "meta_arg_of_pericenter": 165.2555,
        "meta_mean_anomaly": 194.8709,
        "meta_ephemeris_type": 0,
        "meta_classification_type": "U",
        "meta_norad_cat_id": 66705,
        "meta_element_set_no": 999,
        "meta_rev_at_epoch": 325,
        "meta_bstar": 0.00032269,
        "meta_mean_motion_dot": 6.514e-05,
        "meta_mean_motion_ddot": 0,
        "tle_line1": "1 66705U 25276AR  25354.18140666  .00006514  00000+0  32269-3 0  9997",
        "tle_line2": "2 66705  97.4388  65.8268 0001045 165.2555 194.8709 15.18098431  3257"
      },
      "geometry": {
        "type": "Point",
        "coordinates": [
          -97.78508237288436,
          64.86994991620914
        ]
      }
    },
    {
      "type": "Feature",
      "properties": {
        "norad_id": 66706,
        "name": "FLOCK 4H-3",
        "group": "last-30-days",
        "lat": 64.2178422221524,
        "lon": 50.33448513092657,
        "alt_km": 509.14437044144233,
        "timestamp": "2025-12-20T09:36:00.352322+00:00",
        "meta_object_name": "FLOCK 4H-3",
        "meta_object_id": "2025-276AS",
        "meta_epoch": "2025-12-20T04:33:56.462112",
        "meta_mean_motion": 15.17450644,
        "meta_eccentricity": 0.0002801,
        "meta_inclination": 97.445,
        "meta_ra_of_asc_node": 65.8354,
        "meta_arg_of_pericenter": 263.5985,
        "meta_mean_anomaly": 96.493,
        "meta_ephemeris_type": 0,
        "meta_classification_type": "U",
        "meta_norad_cat_id": 66706,
        "meta_element_set_no": 999,
        "meta_rev_at_epoch": 325,
        "meta_bstar": 0.00030133,
        "meta_mean_motion_dot": 5.966e-05,
        "meta_mean_motion_ddot": 0,
        "tle_line1": "1 66706U 25276AS  25354.19023683  .00005966  00000+0  30133-3 0  9996",
        "tle_line2": "2 66706  97.4450  65.8354 0002801 263.5985  96.4930 15.17450644  3254"
      },
      "geometry": {
        "type": "Point",
        "coordinates": [
          50.33448513092657,
          64.2178422221524
        ]
      }
    },
    {
      "type": "Feature",
      "properties": {
        "norad_id": 66707,
        "name": "FLOCK 4H-4",
        "group": "last-30-days",
        "lat": 45.70910320769145,
        "lon": 58.32634666221586,
        "alt_km": 512.3455953495195,
        "timestamp": "2025-12-20T09:36:00.352332+00:00",
        "meta_object_name": "FLOCK 4H-4",
        "meta_object_id": "2025-276AT",
        "meta_epoch": "2025-12-20T03:03:55.706112",
        "meta_mean_motion": 15.17177155,
        "meta_eccentricity": 0.0003442,
        "meta_inclination": 97.4444,
        "meta_ra_of_asc_node": 65.7616,
        "meta_arg_of_pericenter": 264.756,
        "meta_mean_anomaly": 95.3281,
        "meta_ephemeris_type": 0,
        "meta_classification_type": "U",
        "meta_norad_cat_id": 66707,
        "meta_element_set_no": 999,
        "meta_rev_at_epoch": 324,
        "meta_bstar": 0.00028886,
        "meta_mean_motion_dot": 5.671e-05,
        "meta_mean_motion_ddot": 0,
        "tle_line1": "1 66707U 25276AT  25354.12772808  .00005671  00000+0  28886-3 0  9995",
        "tle_line2": "2 66707  97.4444  65.7616 0003442 264.7560  95.3281 15.17177155  3241"
      },
      "geometry": {
        "type": "Point",
        "coordinates": [
          58.32634666221586,
          45.70910320769145
        ]
      }
    },
    {
      "type": "Feature",
      "properties": {
        "norad_id": 66708,
        "name": "FLOCK 4H-5",
        "group": "last-30-days",
        "lat": 58.85724101540248,
        "lon": -101.46229730212853,
        "alt_km": 504.9744347657643,
        "timestamp": "2025-12-20T09:36:00.352342+00:00",
        "meta_object_name": "FLOCK 4H-5",
        "meta_object_id": "2025-276AU",
        "meta_epoch": "2025-12-20T04:19:35.563008",
        "meta_mean_motion": 15.1813623,
        "meta_eccentricity": 0.000122,
        "meta_inclination": 97.4403,
        "meta_ra_of_asc_node": 65.8315,
        "meta_arg_of_pericenter": 112.8536,
        "meta_mean_anomaly": 247.2827,
        "meta_ephemeris_type": 0,
        "meta_classification_type": "U",
        "meta_norad_cat_id": 66708,
        "meta_element_set_no": 999,
        "meta_rev_at_epoch": 325,
        "meta_bstar": 0.00047866,
        "meta_mean_motion_dot": 9.709e-05,
        "meta_mean_motion_ddot": 0,
        "tle_line1": "1 66708U 25276AU  25354.18027272  .00009709  00000+0  47866-3 0  9995",
        "tle_line2": "2 66708  97.4403  65.8315 0001220 112.8536 247.2827 15.18136230  3257"
      },
      "geometry": {
        "type": "Point",
        "coordinates": [
          -101.46229730212853,
          58.85724101540248
        ]
      }
    }
  ]
}